#dP2022  5 30 12  0  0.00000000      96 __u+U ITR00 EXT  IAC
## 2212 129600.00000000   900.00000000 59729 0.5000000000000
+  117   C06C07C08C09C10C11C12C13C14C16C19C20C21C22C23C24C25
+        C26C27C28C29C30C32C33C34C35C36C37C38C39C40C41C42C43
+        C44C45C46E01E02E03E04E05E07E08E09E10E11E12E13E14E15
+        E18E19E21E24E25E26E27E30E31E33E34E36G01G02G03G04G05
+        G06G07G08G09G10G11G12G13G14G15G16G17G18G19G20G21G22
+        G23G24G25G26G27G28G29G30G31G32J02J03R01R02R03R04R05
+        R07R08R09R11R12R13R14R15R17R18R19R20R21R22R24  0  0
++         9 11 13  9  9 10 10 13  9 10 10  9  9  8  9  9 10
++         9  7  7  9  8  8  9 10  8  9  8 11  8  8  9  9  9
++         9  9  9  9 10  9  9  9  8  8  8  8  7  9  8  9  8
++         8  8 10  9 10  8 10 10 10  9  8  7  7  7  7  7  8
++         7  8  7  7  8  9  8  9  8  8  8  7  8  8  7  8  7
++         8  7  9  8  7  9  8  7  9  8 13  9  9  9  7  9  8
++         9  9  9  9  9  8  7  8  7  9  9  9  8  8  8  0  0
%c M  cc GPS ccc cccc cccc cccc cccc ccccc ccccc ccccc ccccc
%c cc cc ccc ccc cccc cccc cccc cccc ccccc ccccc ccccc ccccc
%f  0.0000000  0.000000000  0.00000000000  0.000000000000000
%f  0.0000000  0.000000000  0.00000000000  0.000000000000000
%i    0    0    0    0      0      0      0      0         0
%i    0    0    0    0      0      0      0      0         0
/* IAC                                ULTRA-RAPID PREDICTION
/* S/V CLOCKS ARE ALIGNED TO GNSS TIME                      
/* G:C1WC2W R:C1PC2P E:C1XC5X C:C2IC6I J:C1CC2S             
/* PCV:IGS14_2196 OL/AL:FES2004  NONE     YN ORB:CoN CLK:CoN
*  2022 05 31  9 45  0.00000000
PC06 -17770.419229  32713.055527 -19980.348811     93.647547
PC07  -4297.655857  38228.552496 -17085.384921   -237.230769
PC08  -5221.895613  20284.907336  36602.326332    340.009123
PC09 -12111.730153  31348.831640 -25386.133130   -838.589416
PC10   2446.077657  40484.672183 -10316.255809    129.269998
PC11   2348.286208 -19360.523473 -19914.331045    385.577963
PC12  17627.789014 -20823.775694  -5869.110242   -607.193806
PC13   2349.657782  23645.633763  34992.156733    -17.295772
PC14  -5751.298093 -27333.846306   -656.991309    488.648880
PC16 -21032.964771  32444.731683 -16942.337567    136.161099
PC19  11488.496133  23908.705408  -8596.401290    864.115560
PC20    210.300141  26633.336901   8284.703523   -937.943350
PC21  11943.219426 -13525.383569 -21275.211552   -393.962869
PC22  16587.921977   7195.669014 -21241.585827   -966.738878
PC23 -26929.001039  -7042.995647  -2001.672763   -931.425868
PC24   3390.801400 -15976.601648  22620.338548   -971.965468
PC25 -18142.541854 -15800.791996  14118.801556   -728.760454
PC26  20140.488305  -7444.729900  17831.592316    730.157537
PC27 -21967.106974  16991.030542  -2849.531803    731.647413
PC28 -21313.742795   2483.342128 -17842.055995     73.072183
PC29   8357.045333  13867.795377  22716.853571    562.004229
PC30  -9757.055503  22419.284572  13460.160780    499.259070
PC32 -11911.619495  13520.447498  21323.006595   -965.357804
PC33 -11629.305445 -23898.727175   8554.144527   -967.101214
PC34   8818.106713 -22290.397604 -14284.006185   -391.399476
PC35  20816.125328  -2185.228348  18426.832775    298.986548
PC36  17339.449434  16352.192474 -14490.014960   -965.791797
PC37 -21132.774997   6193.258730 -17113.182489   -908.399964
PC38 -14099.621624  19454.983943  34661.682702    235.982126
PC39 -23754.288916  33072.879063 -11256.711271     34.980286
PC40  -8613.596078  35210.713902 -21414.063071    273.542097
PC41 -16677.905699  -7682.156515  21070.170302   -967.624697
PC42    425.711557 -26362.785646  -9133.895713   -965.867274
PC43  -7776.765756 -14486.397372 -22558.486169   -920.933483
PC44  21389.767133 -17642.708797   2982.416946    677.143315
PC45  26967.496142   6835.774350   2313.217416    771.178870
PC46  -1534.064174  16337.431275 -22569.771496   -353.714675
PE01 -22706.887711  -6871.906722 -17699.688015   -487.044554
PE02  22671.131651   6722.224943  17810.050782    302.649397
PE03  18226.835375  -4242.551729 -22932.167073   -563.908839
PE04 -15175.499747  22870.692703  11090.056711  -1039.762233
PE05  10617.823283  17294.979307 -21537.116820   -176.557249
PE07   3032.751775 -28440.624601   7661.022986   -673.870029
PE08  14918.762164 -23134.579258 -10893.064556   -538.443617
PE09  -2933.164808  28404.894032  -7749.875652   -537.089855
PE10 -13738.077496  16700.031938  20199.835272   -516.574638
PE11  -2174.073464  16732.726564  24307.102154   3502.959785
PE12 -22557.488669  14028.705567  13074.139588   4586.662153
PE13   2934.366363 -16761.437517 -24221.255102    429.014507
PE14  -1103.323686  21203.931807  10395.691304  -1821.684630
PE15  22616.880452 -13994.024814 -12985.148640    742.322628
PE18  -3944.572333 -26123.307194 -18908.448316  -1385.068746
PE19 -17721.799316   1429.769106  23677.917648  -5577.285508
PE21 -20971.498621 -20814.768848  -1773.345000   -737.385348
PE24   5901.441730  23534.690750 -16981.486695   -644.782053
PE25  20855.581470  20952.698440   1510.259239   -575.892394
PE26 -19159.111623  -9326.786028 -20548.715346  -1207.787147
PE27  -7065.243640 -23766.490658  16166.481160   -311.256721
PE30  11746.396355 -11876.561222  24427.432960   -554.387214
PE31 -10860.665079  12709.287033 -24420.789121   -497.506778
PE33 -28868.641866   2986.547841  -5853.787536   -456.106052
PE34  28882.265029  -3178.605618   5644.891865   -519.788038
PE36  18301.018648   9672.648274  21149.936118   -381.388557
PG01  -8266.219171 -13535.127329 -21668.006412    351.251051
PG02 -14895.060413  14825.430307  16984.152530   -653.040350
PG03 -12039.520395 -23030.098908  -5889.303321   -263.171141
PG04  -2014.810596 -21282.045864  15716.335879   -161.950230
PG05    155.155221  19726.382189  17546.742799    -83.816087
PG06 -25479.954606   5965.245569   4855.409643    324.634430
PG07 -22655.916095  -6851.338503  12941.831182    322.175827
PG08   3874.264649 -24738.116383  -8347.885332    -70.215705
PG09 -10607.795601 -12739.029176  20679.125796   -332.408126
PG10  18933.132671   5076.616657 -17912.269636   -435.962162
PG11 -16461.818514  12537.182054  16635.886211    -18.993289
PG12   7326.692879  23828.934543  -9593.235951   -223.841156
PG13 -12984.199372  23033.817836  -1254.048635    321.362011
PG14 -19212.943735  -6471.791191 -17208.466099   -110.342477
PG15    -86.370032  24902.531697  -9194.445780    -56.966887
PG16   6161.052691 -16053.969965  19836.769724   -505.360809
PG17 -17124.487591   5025.393486 -19255.716569    619.278264
PG18  22115.511715   6911.746385  13076.411357    155.379298
PG19 -18454.734112  11920.780110 -15028.678444    164.468617
PG20  -9106.326387  12820.714553  21420.549065    513.578899
PG21   2503.301899 -15326.354472 -20814.415722    161.255684
PG22  17767.229266 -15057.500623 -12185.012225    268.006985
PG23  20016.330764  14396.719467 -10024.149769    -25.284028
PG24   4351.123244  15370.983170 -21532.542271    230.724160
PG25  17591.519058  19805.406467   3112.515890    331.534926
PG26  14169.249577  -7271.451935  21196.058382    209.282005
PG27  12532.641516 -22876.065096   3497.653311    210.505030
PG28 -15427.774434   2313.693397 -20951.525136    347.696509
PG29   9041.349821  13197.167982  21135.741846   -519.271856
PG30 -26435.677052   -283.923784   3816.675137   -529.849277
PG31  24848.682621  -7141.663623   6936.342533   -179.867396
PG32  17337.097757  -7815.744686 -18314.142521   -139.800770
PJ02 -21974.728514  18966.810361 -25995.809846     -0.368270
PJ03 -28737.609257  30728.437002   8905.222432     -2.527560
PR01   1940.538603 -24439.816843  -7069.240825      9.296417
PR02  -6460.517229 -21322.590798  12413.340891    519.939993
PR03 -10863.404337  -5417.068241  22476.084742     57.584055
PR04  -8943.139963  13123.973238  19995.912065    144.131740
PR05  -2331.443866  24570.160948   6502.828703     93.804298
PR07  10864.552848   4728.318009 -22550.979852     35.789506
PR08   8918.636205 -13301.222796 -19785.188437    -65.422979
PR09  17505.231402  14879.080437 -10982.757275     57.961517
PR11  16179.202592  -2167.419582  19606.203801     37.562097
PR12  -1236.794887 -12593.929357  22171.637738     18.688664
PR13 -16634.889611 -15004.766018  12187.563386    -23.042917
PR14 -23193.100247  -8588.510363  -6272.968184     25.435907
PR15 -15620.490723   2617.241888 -19976.578214     95.738166
PR17 -19314.181784   3239.609855 -16321.535222    530.788184
PR18 -21996.004512  12945.295086   -844.854248    118.685085
PR19 -14445.826840  15522.039199  14171.136850   -191.000123
PR20   4727.123353   9207.495882  23314.368617    -71.650302
PR21  20050.452893  -4253.539162  15192.625792   -305.627694
PR22  21818.968792 -13111.430474    -38.434202   -186.583527
PR24  -5895.671733  -9072.116799 -23089.888631     96.385171
EOF
